[Satellite]
VERSION=1.1
NAME=ARIANE 40+ R/B
NICKNAME=ARIANE 40+ R/B
TLE1=1 23561U 95021B   17186.08106545  .00000028  00000-0  24791-4 0  9993
TLE2=2 23561  98.7930 187.6850 0006469 196.7815 207.1737 14.37819663163603
